IRIDIUM 112             
1 41925U 17003J   25271.15275121  .00000472  00000+0  16136-3 0  9995
2 41925  86.4032 197.7529 0002021  89.0938 271.0489 14.34216524455713
IRIDIUM 111             
1 41926U 17003K   25271.20984049  .00000452  00000+0  15438-3 0  9990
2 41926  86.4034 197.7940 0002260  83.1776 276.9677 14.34219150455703
IRIDIUM 113             
1 42803U 17039A   25270.98049697  .00000081  00000+0  21729-4 0  9998
2 42803  86.3925  71.7640 0002043  96.0459 264.0970 14.34218384433601
IRIDIUM 123             
1 42804U 17039B   25271.02197641  .00000081  00000+0  21821-4 0  9991
2 42804  86.3918 103.2510 0002390  85.8438 274.3031 14.34218759432370
IRIDIUM 120             
1 42805U 17039C   25270.97415572 -.00000030  00000+0 -17908-4 0  9998
2 42805  86.3913  71.5831 0002004  81.8901 278.2522 14.34217003433596
IRIDIUM 115             
1 42806U 17039D   25270.97867313  .00000184  00000+0  48590-4 0  9992
2 42806  86.4453  71.6737 0002750  84.0557 276.0957 14.43278666436440
IRIDIUM 118             
1 42807U 17039E   25271.12345935 -.00000039  00000+0 -20884-4 0  9999
2 42807  86.3916 103.2074 0001945  94.5931 265.5488 14.34217221432388
IRIDIUM 117             
1 42808U 17039F   25271.07271954 -.00000088  00000+0 -38606-4 0  9998
2 42808  86.3916 103.1889 0002218  88.2198 271.9252 14.34217269432406
